#aV2006  9 26  0  0   .00000000      96 DD+AD WGS84 FIT  NGA
## 1394 172800.00000000   900.00000000 54004  .0000000000000
+   29     1  2  3  4  5  6  7  8  9 10 11 13 14 15 16 17 18
+         19 20 21 22 23 24 25 26 27 28 29 30  0  0  0  0  0
+          0  0  0  0  0  0  0  0  0  0  0  0  0  0  0  0  0
+          0  0  0  0  0  0  0  0  0  0  0  0  0  0  0  0  0
+          0  0  0  0  0  0  0  0  0  0  0  0  0  0  0  0  0
++         0  0  0  0  0  0  0  0  0  0  0  0  0  0  0  0  0
++         0  0  0  0  0  0  0  0  0  0  0  0  0  0  0  0  0
++         0  0  0  0  0  0  0  0  0  0  0  0  0  0  0  0  0
++         0  0  0  0  0  0  0  0  0  0  0  0  0  0  0  0  0
++         0  0  0  0  0  0  0  0  0  0  0  0  0  0  0  0  0
%c cc cc ccc ccc cccc cccc cccc cccc ccccc ccccc ccccc ccccc
%c cc cc ccc ccc cccc cccc cccc cccc ccccc ccccc ccccc ccccc
%f  0.0000000  0.000000000  0.00000000000  0.000000000000000
%f  0.0000000  0.000000000  0.00000000000  0.000000000000000
%i    0    0    0    0      0      0      0      0         0
%i    0    0    0    0      0      0      0      0         0
/*      NGA, ST. LOUIS,MO.                                  
/*   EPHEMERIS COMPUTED FROM  3 DAYS OF DATA                
/* CCCCCCCCCCCCCCCCCCCCCCCCCCCCCCCCCCCCCCCCCCCCCCCCCCCCCCCCC
/* CCCCCCCCCCCCCCCCCCCCCCCCCCCCCCCCCCCCCCCCCCCCCCCCCCCCCCCCC
*  2006  9 26 11 30   .00000000                                                 
P  1 -19548.016694 -15265.919077   9790.887311     78.947609                    
V  1  11766.218294   3214.207192  29030.877825       .021209                    
P  2  13018.431049  19191.814086 -13395.235500     38.742600                    
V  2    523.561665  16705.349968  24661.654478       .038166                    
P  3 -23205.908353 -11525.903416  -6743.581002    176.398764                    
V  3   8898.123512  -1111.661452 -29194.132221       .718329                    
P  4   5378.915036  25730.991687  -2075.007414    315.652416                    
V  4  -3085.401992   3112.085990  31555.644907       .054471                    
P  5  21814.943226 -10386.175181  10626.523033    353.152751                    
V  5  -7710.477081  12033.159207  27183.854795       .087515                    
P  6  14402.059004 -10422.352244 -19558.527983    591.022737                    
V  6  23557.977699   9423.988694  12145.715177      -.055391                    
P  7 -10295.852262 -16683.405180 -17540.632236    522.118988                    
V  7  22683.175505   4689.266677 -17531.306326      -.048676                    
P  8  -1439.426534  25462.605811  -6705.567088    -80.990764                    
V  8  -3614.523107  -8035.784730 -30786.906486      -.013382                    
P  9  15229.491430    658.181325  21202.777049     37.713098                    
V  9   5406.293512  27734.016540  -4376.667705       .015644                    
P 10  15317.923152   6151.303509 -20970.476905     90.234472                    
V 10 -20316.255558  16713.345807  -9681.151487       .005480                    
P 11 -16167.193456   3782.299276  20665.775544    352.205821                    
V 11  -8259.794989 -25394.890329  -1537.837796       .018929                    
P 13 -12962.984526   9623.788862 -21173.934525     97.772274                    
V 13 -24420.593676 -10545.177024  10240.871818       .034310                    
P 14  -5469.897186 -16461.492154  20207.276818     -4.779919                    
V 14  23942.212935   8534.291698  13411.622545       .007767                    
P 15   1425.275086 -25775.134685  -5322.701381     -5.755910                    
V 15   3847.072120   6352.198488 -30928.521716      -.049456                    
P 16 -12157.884611  -9481.522386 -21562.073533     76.570316                    
V 16  21248.112736 -17524.963153  -4140.931600       .033908                    
P 17   4893.340171  16799.711744  20008.589540     94.654541                    
V 17 -24129.687854  -7956.741044  12475.947602      -.011218                    
P 18  16334.345851 -19241.887118   7839.777532   -249.776302                    
V 18   9699.674692  -3554.474675 -29709.837557      -.008092                    
P 19 -25092.859315  -7358.424162   4981.108876     18.964648                    
V 19  -4528.075333  -5026.770721 -30811.974847       .032635                    
P 20 -22353.090434  12607.100794   6701.697266    -22.330098                    
V 20   4763.800244  -7756.131187  30110.216245       .001712                    
P 21   6427.596766 -22093.114669 -12690.561682     54.397091                    
V 21   5284.463079  15957.538660 -25479.547062       .017528                    
P 22   4889.642055 -19290.123146  17739.556002    137.244517                    
V 22  18890.505321 -11859.629489 -18292.712569       .027709                    
P 23 -22343.226315   2227.833467 -14425.520290    138.154557                    
V 23 -16312.804718  -7967.709486  24000.635953       .002785                    
P 24   1344.207536  26298.561282   2371.174272     39.044984                    
V 24  -3393.446098  -2404.207878  31687.157198       .030286                    
P 25 -10973.872333 -23051.926487  -6637.777411    351.088097                    
V 25    634.736622  -9471.793461  30194.840797       .204546                    
P 26  25348.873823   8301.266416   2868.201170   -269.334564                    
V 26   3251.723381   2820.961960 -31768.094349      -.149723                    
P 27  -5829.798661  20700.095938 -14768.848366     69.781033                    
V 27  -6885.372935 -18905.345964 -23144.148559       .018168                    
P 28  -8086.067375  20112.266592  15402.557769     17.873470                    
V 28 -16373.802911  10205.613700 -22696.538970      -.007481                    
P 29  25132.279367   9093.784465    193.535231     -9.327617                    
V 29   -616.498862   1583.364705 -32141.157028       .536594                    
P 30  18886.971515 -18518.994511  -1847.380999     11.268816                    
V 30   3753.010250   1213.681219  31360.585301       .012010                    
EOF
